{
  "type": "FeatureCollection",
  "features": [
    {
      "type": "Feature",
      "properties": {
        "norad_id": 64903,
        "name": "CO3D 1",
        "group": "resource",
        "lat": -4.84102305529718,
        "lon": -109.99877694823546,
        "alt_km": 509.16923056507767,
        "timestamp": "2025-12-20T11:30:28.029150+00:00",
        "meta_object_name": "CO3D 1",
        "meta_object_id": "2025-156E",
        "meta_epoch": "2025-12-20T04:22:43.137408",
        "meta_mean_motion": 15.2019463,
        "meta_eccentricity": 9.28e-05,
        "meta_inclination": 97.4345,
        "meta_ra_of_asc_node": 70.3421,
        "meta_arg_of_pericenter": 75.2061,
        "meta_mean_anomaly": 284.9276,
        "meta_ephemeris_type": 0,
        "meta_classification_type": "U",
        "meta_norad_cat_id": 64903,
        "meta_element_set_no": 999,
        "meta_rev_at_epoch": 2233,
        "meta_bstar": 0.00017631,
        "meta_mean_motion_dot": 3.75e-05,
        "meta_mean_motion_ddot": 0,
        "tle_line1": "1 64903U 25156E   25354.18244372  .00003750  00000+0  17631-3 0  9996",
        "tle_line2": "2 64903  97.4345  70.3421 0000928  75.2061 284.9276 15.20194630 22332"
      },
      "geometry": {
        "type": "Point",
        "coordinates": [
          -109.99877694823546,
          -4.84102305529718
        ]
      }
    },
    {
      "type": "Feature",
      "properties": {
        "norad_id": 66514,
        "name": "SENTINEL-6B",
        "group": "resource",
        "lat": 20.659587049953174,
        "lon": -43.30395975856602,
        "alt_km": 1336.4295016376,
        "timestamp": "2025-12-20T11:30:28.029160+00:00",
        "meta_object_name": "SENTINEL-6B",
        "meta_object_id": "2025-264A",
        "meta_epoch": "2025-12-12T06:01:21.428544",
        "meta_mean_motion": 12.81479578,
        "meta_eccentricity": 0.00078482,
        "meta_inclination": 66.0385,
        "meta_ra_of_asc_node": 163.4531,
        "meta_arg_of_pericenter": 270.1376,
        "meta_mean_anomaly": 89.874,
        "meta_ephemeris_type": 0,
        "meta_classification_type": "U",
        "meta_norad_cat_id": 66514,
        "meta_element_set_no": 999,
        "meta_rev_at_epoch": 322,
        "meta_bstar": 0.00018573353,
        "meta_mean_motion_dot": -1.8e-07,
        "meta_mean_motion_ddot": 0,
        "tle_line1": "1 66514U 25264A   25346.25094246 -.00000018  00000+0  18573-3 0  9999",
        "tle_line2": "2 66514  66.0385 163.4531 0007848 270.1376  89.8740 12.81479578  3223"
      },
      "geometry": {
        "type": "Point",
        "coordinates": [
          -43.30395975856602,
          20.659587049953174
        ]
      }
    }
  ]
}